FALCONSAT-10            
1 58291U 23174AM  26068.70247784  .00006748  00000+0  25969-3 0  9991
2 58291  97.3865 145.7938 0008932 169.5942 190.5483 15.26670596129582
STARLINK-36551          
1 67493U 26012A   26068.07559727  .00041667  00000+0  15152-2 0  9993
2 67493  43.0030 318.2495 0001547 277.6611  82.4065 15.27578656  7666
