[{"OBJECT_NAME":"FALCONSAT-10","OBJECT_ID":"2023-174AM","EPOCH":"2026-03-09T16:51:34.085376","MEAN_MOTION":15.26670596,"ECCENTRICITY":0.00089318,"INCLINATION":97.3865,"RA_OF_ASC_NODE":145.7938,"ARG_OF_PERICENTER":169.5942,"MEAN_ANOMALY":190.5483,"EPHEMERIS_TYPE":0,"CLASSIFICATION_TYPE":"U","NORAD_CAT_ID":58291,"ELEMENT_SET_NO":999,"REV_AT_EPOCH":12958,"BSTAR":0.00025968794,"MEAN_MOTION_DOT":6.748e-5,"MEAN_MOTION_DDOT":0},{"OBJECT_NAME":"STARLINK-36551","OBJECT_ID":"2026-012A","EPOCH":"2026-03-09T01:48:51.604128","MEAN_MOTION":15.27578656,"ECCENTRICITY":0.00015475,"INCLINATION":43.003,"RA_OF_ASC_NODE":318.2495,"ARG_OF_PERICENTER":277.6611,"MEAN_ANOMALY":82.4065,"EPHEMERIS_TYPE":0,"CLASSIFICATION_TYPE":"U","NORAD_CAT_ID":67493,"ELEMENT_SET_NO":999,"REV_AT_EPOCH":766,"BSTAR":0.0015151783,"MEAN_MOTION_DOT":0.00041667,"MEAN_MOTION_DDOT":0}]
